[{"OBJECT_NAME":"STARLINK-31025","OBJECT_ID":"2023-203S","EPOCH":"2026-03-09T00:38:34.789056","MEAN_MOTION":15.27576528,"ECCENTRICITY":5.93e-5,"INCLINATION":42.9998,"RA_OF_ASC_NODE":70.4447,"ARG_OF_PERICENTER":277.971,"MEAN_ANOMALY":82.1075,"EPHEMERIS_TYPE":0,"CLASSIFICATION_TYPE":"U","NORAD_CAT_ID":58634,"ELEMENT_SET_NO":999,"REV_AT_EPOCH":12469,"BSTAR":-3.3876096e-5,"MEAN_MOTION_DOT":-1.194e-5,"MEAN_MOTION_DDOT":0},{"OBJECT_NAME":"FLOCK 4G-31","OBJECT_ID":"2025-009AV","EPOCH":"2026-03-09T17:55:44.365728","MEAN_MOTION":15.26963037,"ECCENTRICITY":5.975e-5,"INCLINATION":97.4007,"RA_OF_ASC_NODE":151.027,"ARG_OF_PERICENTER":42.5998,"MEAN_ANOMALY":317.5288,"EPHEMERIS_TYPE":0,"CLASSIFICATION_TYPE":"U","NORAD_CAT_ID":62652,"ELEMENT_SET_NO":999,"REV_AT_EPOCH":6372,"BSTAR":0.00048078603,"MEAN_MOTION_DOT":0.00012662,"MEAN_MOTION_DDOT":0}]
